CCSDS_OMM_VERS = 2.0
CREATION_DATE  = 
ORIGINATOR     = 

OBJECT_NAME    = CONNECTA IOT-14
OBJECT_ID      = 2026-004AQ
CENTER_NAME    = EARTH
REF_FRAME      = TEME
TIME_SYSTEM    = UTC
MEAN_ELEMENT_THEORY = SGP/SGP4

EPOCH          = 2026-02-02T11:51:48.714912
MEAN_MOTION    = 15.18464909
ECCENTRICITY   = .0011584
INCLINATION    = 97.4471
RA_OF_ASC_NODE = 34.5342
ARG_OF_PERICENTER = 90.6940
MEAN_ANOMALY   = 269.5622

EPHEMERIS_TYPE = 0
CLASSIFICATION_TYPE = U
NORAD_CAT_ID   = 67401
ELEMENT_SET_NO = 999
REV_AT_EPOCH   = 332
BSTAR          = .50189279E-3
MEAN_MOTION_DOT = .10298E-3
MEAN_MOTION_DDOT = 0

CCSDS_OMM_VERS = 2.0
CREATION_DATE  = 
ORIGINATOR     = 

OBJECT_NAME    = CONNECTA IOT-15
OBJECT_ID      = 2026-004AR
CENTER_NAME    = EARTH
REF_FRAME      = TEME
TIME_SYSTEM    = UTC
MEAN_ELEMENT_THEORY = SGP/SGP4

EPOCH          = 2026-02-03T05:49:35.373792
MEAN_MOTION    = 15.16833053
ECCENTRICITY   = .00048647
INCLINATION    = 97.4545
RA_OF_ASC_NODE = 35.2346
ARG_OF_PERICENTER = 76.0688
MEAN_ANOMALY   = 284.1086

EPHEMERIS_TYPE = 0
CLASSIFICATION_TYPE = U
NORAD_CAT_ID   = 67402
ELEMENT_SET_NO = 999
REV_AT_EPOCH   = 342
BSTAR          = .38278767E-3
MEAN_MOTION_DOT = .7466E-4
MEAN_MOTION_DDOT = 0

CCSDS_OMM_VERS = 2.0
CREATION_DATE  = 
ORIGINATOR     = 

OBJECT_NAME    = SHIJIAN-29B (SJ-29B)
OBJECT_ID      = 2025-315C
CENTER_NAME    = EARTH
REF_FRAME      = TEME
TIME_SYSTEM    = UTC
MEAN_ELEMENT_THEORY = SGP/SGP4

EPOCH          = 2026-02-03T00:04:10.109856
MEAN_MOTION    = 1.00271581
ECCENTRICITY   = .0001865
INCLINATION    = 3.0582
RA_OF_ASC_NODE = 98.6234
ARG_OF_PERICENTER = 309.8270
MEAN_ANOMALY   = 158.8680

EPHEMERIS_TYPE = 0
CLASSIFICATION_TYPE = U
NORAD_CAT_ID   = 67403
ELEMENT_SET_NO = 999
REV_AT_EPOCH   = 34
BSTAR          = 0
MEAN_MOTION_DOT = -.77E-6
MEAN_MOTION_DDOT = 0

CCSDS_OMM_VERS = 2.0
CREATION_DATE  = 
ORIGINATOR     = 

OBJECT_NAME    = STARLINK-36484
OBJECT_ID      = 2026-005A
CENTER_NAME    = EARTH
REF_FRAME      = TEME
TIME_SYSTEM    = UTC
MEAN_ELEMENT_THEORY = SGP/SGP4

EPOCH          = 2026-02-03T06:00:02.000160
MEAN_MOTION    = 15.46075950
ECCENTRICITY   = .00008713
INCLINATION    = 42.9996
RA_OF_ASC_NODE = 75.7294
ARG_OF_PERICENTER = 273.2674
MEAN_ANOMALY   = 26.7144

EPHEMERIS_TYPE = 0
CLASSIFICATION_TYPE = U
NORAD_CAT_ID   = 67404
ELEMENT_SET_NO = 999
REV_AT_EPOCH   = 460
BSTAR          = -.46263471E-1
MEAN_MOTION_DOT = -.2059884E-1
MEAN_MOTION_DDOT = 0

CCSDS_OMM_VERS = 2.0
CREATION_DATE  = 
ORIGINATOR     = 

OBJECT_NAME    = STARLINK-36452
OBJECT_ID      = 2026-005B
CENTER_NAME    = EARTH
REF_FRAME      = TEME
TIME_SYSTEM    = UTC
MEAN_ELEMENT_THEORY = SGP/SGP4

EPOCH          = 2026-02-03T06:00:02.000160
MEAN_MOTION    = 15.50599430
ECCENTRICITY   = .00011076
INCLINATION    = 42.9997
RA_OF_ASC_NODE = 75.7041
ARG_OF_PERICENTER = 263.4213
MEAN_ANOMALY   = 46.6410

EPHEMERIS_TYPE = 0
CLASSIFICATION_TYPE = U
NORAD_CAT_ID   = 67405
ELEMENT_SET_NO = 999
REV_AT_EPOCH   = 460
BSTAR          = -.13438229E-2
MEAN_MOTION_DOT = -.78447E-3
MEAN_MOTION_DDOT = 0

CCSDS_OMM_VERS = 2.0
CREATION_DATE  = 
ORIGINATOR     = 

OBJECT_NAME    = STARLINK-36409
OBJECT_ID      = 2026-005C
CENTER_NAME    = EARTH
REF_FRAME      = TEME
TIME_SYSTEM    = UTC
MEAN_ELEMENT_THEORY = SGP/SGP4

EPOCH          = 2026-02-03T06:00:02.000160
MEAN_MOTION    = 15.50531814
ECCENTRICITY   = .00014271
INCLINATION    = 42.9998
RA_OF_ASC_NODE = 75.6989
ARG_OF_PERICENTER = 290.6322
MEAN_ANOMALY   = 21.3683

EPHEMERIS_TYPE = 0
CLASSIFICATION_TYPE = U
NORAD_CAT_ID   = 67406
ELEMENT_SET_NO = 999
REV_AT_EPOCH   = 465
BSTAR          = .65701637E-3
MEAN_MOTION_DOT = .38326E-3
MEAN_MOTION_DDOT = 0

CCSDS_OMM_VERS = 2.0
CREATION_DATE  = 
ORIGINATOR     = 

OBJECT_NAME    = STARLINK-36510
OBJECT_ID      = 2026-005D
CENTER_NAME    = EARTH
REF_FRAME      = TEME
TIME_SYSTEM    = UTC
MEAN_ELEMENT_THEORY = SGP/SGP4

EPOCH          = 2026-02-03T06:00:02.000160
MEAN_MOTION    = 15.50533151
ECCENTRICITY   = .00014464
INCLINATION    = 42.9998
RA_OF_ASC_NODE = 75.6943
ARG_OF_PERICENTER = 289.7675
MEAN_ANOMALY   = 24.1484

EPHEMERIS_TYPE = 0
CLASSIFICATION_TYPE = U
NORAD_CAT_ID   = 67407
ELEMENT_SET_NO = 999
REV_AT_EPOCH   = 465
BSTAR          = .65288288E-3
MEAN_MOTION_DOT = .38084E-3
MEAN_MOTION_DDOT = 0

CCSDS_OMM_VERS = 2.0
CREATION_DATE  = 
ORIGINATOR     = 

OBJECT_NAME    = STARLINK-36509
OBJECT_ID      = 2026-005E
CENTER_NAME    = EARTH
REF_FRAME      = TEME
TIME_SYSTEM    = UTC
MEAN_ELEMENT_THEORY = SGP/SGP4

EPOCH          = 2026-02-03T06:00:02.000160
MEAN_MOTION    = 15.50600228
ECCENTRICITY   = .00010873
INCLINATION    = 42.9997
RA_OF_ASC_NODE = 75.6891
ARG_OF_PERICENTER = 263.1772
MEAN_ANOMALY   = 52.6363

EPHEMERIS_TYPE = 0
CLASSIFICATION_TYPE = U
NORAD_CAT_ID   = 67408
ELEMENT_SET_NO = 999
REV_AT_EPOCH   = 465
BSTAR          = -.13615121E-2
MEAN_MOTION_DOT = -.79467E-3
MEAN_MOTION_DDOT = 0

CCSDS_OMM_VERS = 2.0
CREATION_DATE  = 
ORIGINATOR     = 

OBJECT_NAME    = STARLINK-36507
OBJECT_ID      = 2026-005F
CENTER_NAME    = EARTH
REF_FRAME      = TEME
TIME_SYSTEM    = UTC
MEAN_ELEMENT_THEORY = SGP/SGP4

EPOCH          = 2026-02-03T06:00:02.000160
MEAN_MOTION    = 15.50519255
ECCENTRICITY   = .00014268
INCLINATION    = 43.0000
RA_OF_ASC_NODE = 75.6854
ARG_OF_PERICENTER = 288.5524
MEAN_ANOMALY   = 29.2048

EPHEMERIS_TYPE = 0
CLASSIFICATION_TYPE = U
NORAD_CAT_ID   = 67409
ELEMENT_SET_NO = 999
REV_AT_EPOCH   = 465
BSTAR          = .10827869E-2
MEAN_MOTION_DOT = .63562E-3
MEAN_MOTION_DDOT = 0

CCSDS_OMM_VERS = 2.0
CREATION_DATE  = 
ORIGINATOR     = 

OBJECT_NAME    = STARLINK-36508
OBJECT_ID      = 2026-005G
CENTER_NAME    = EARTH
REF_FRAME      = TEME
TIME_SYSTEM    = UTC
MEAN_ELEMENT_THEORY = SGP/SGP4

EPOCH          = 2026-02-03T06:00:02.000160
MEAN_MOTION    = 15.49349879
ECCENTRICITY   = .00013556
INCLINATION    = 42.9998
RA_OF_ASC_NODE = 75.6808
ARG_OF_PERICENTER = 258.7784
MEAN_ANOMALY   = 60.2423

EPHEMERIS_TYPE = 0
CLASSIFICATION_TYPE = U
NORAD_CAT_ID   = 67410
ELEMENT_SET_NO = 999
REV_AT_EPOCH   = 465
BSTAR          = -.41972593E-1
MEAN_MOTION_DOT = -.2093264E-1
MEAN_MOTION_DDOT = 0

CCSDS_OMM_VERS = 2.0
CREATION_DATE  = 
ORIGINATOR     = 

OBJECT_NAME    = STARLINK-36503
OBJECT_ID      = 2026-005H
CENTER_NAME    = EARTH
REF_FRAME      = TEME
TIME_SYSTEM    = UTC
MEAN_ELEMENT_THEORY = SGP/SGP4

EPOCH          = 2026-02-03T06:00:02.000160
MEAN_MOTION    = 15.50599998
ECCENTRICITY   = .00011163
INCLINATION    = 42.9997
RA_OF_ASC_NODE = 75.6745
ARG_OF_PERICENTER = 265.3707
MEAN_ANOMALY   = 56.1964

EPHEMERIS_TYPE = 0
CLASSIFICATION_TYPE = U
NORAD_CAT_ID   = 67411
ELEMENT_SET_NO = 999
REV_AT_EPOCH   = 439
BSTAR          = -.13929433E-2
MEAN_MOTION_DOT = -.81274E-3
MEAN_MOTION_DDOT = 0

CCSDS_OMM_VERS = 2.0
CREATION_DATE  = 
ORIGINATOR     = 

OBJECT_NAME    = STARLINK-36446
OBJECT_ID      = 2026-005J
CENTER_NAME    = EARTH
REF_FRAME      = TEME
TIME_SYSTEM    = UTC
MEAN_ELEMENT_THEORY = SGP/SGP4

EPOCH          = 2026-02-03T06:00:02.000160
MEAN_MOTION    = 15.50529939
ECCENTRICITY   = .00013205
INCLINATION    = 42.9997
RA_OF_ASC_NODE = 75.6699
ARG_OF_PERICENTER = 264.3750
MEAN_ANOMALY   = 59.1305

EPHEMERIS_TYPE = 0
CLASSIFICATION_TYPE = U
NORAD_CAT_ID   = 67412
ELEMENT_SET_NO = 999
REV_AT_EPOCH   = 465
BSTAR          = .6403519E-3
MEAN_MOTION_DOT = .37338E-3
MEAN_MOTION_DDOT = 0

