CONNECTA IOT-14         
1 67401U 26004AQ  26033.49431383  .00010298  00000+0  50189-3 0  9994
2 67401  97.4471  34.5342 0011584  90.6940 269.5622 15.18464909  3327
CONNECTA IOT-15         
1 67402U 26004AR  26034.24277053  .00007466  00000+0  38279-3 0  9990
2 67402  97.4545  35.2346 0004864  76.0688 284.1086 15.16833053  3428
SHIJIAN-29B (SJ-29B)    
1 67403U 25315C   26034.00289479 -.00000077  00000+0  00000+0 0  9993
2 67403   3.0582  98.6234 0001865 309.8270 158.8680  1.00271581   349
STARLINK-36484          
1 67404U 26005A   26034.25002315 -.02059884  00000+0 -46263-1 0  9996
2 67404  42.9996  75.7294 0000871 273.2674  26.7144 15.46075950  4609
STARLINK-36452          
1 67405U 26005B   26034.25002315 -.00078447  00000+0 -13438-2 0  9990
2 67405  42.9997  75.7041 0001107 263.4213  46.6410 15.50599430  4600
STARLINK-36409          
1 67406U 26005C   26034.25002315  .00038326  00000+0  65702-3 0  9993
2 67406  42.9998  75.6989 0001427 290.6322  21.3683 15.50531814  4659
STARLINK-36510          
1 67407U 26005D   26034.25002315  .00038084  00000+0  65288-3 0  9994
2 67407  42.9998  75.6943 0001446 289.7675  24.1484 15.50533151  4657
STARLINK-36509          
1 67408U 26005E   26034.25002315 -.00079467  00000+0 -13615-2 0  9993
2 67408  42.9997  75.6891 0001087 263.1772  52.6363 15.50600228  4656
STARLINK-36507          
1 67409U 26005F   26034.25002315  .00063562  00000+0  10828-2 0  9994
2 67409  43.0000  75.6854 0001426 288.5524  29.2048 15.50519255  4655
STARLINK-36508          
1 67410U 26005G   26034.25002315 -.02093264  00000+0 -41973-1 0  9996
2 67410  42.9998  75.6808 0001355 258.7784  60.2423 15.49349879  4651
STARLINK-36503          
1 67411U 26005H   26034.25002315 -.00081274  00000+0 -13929-2 0  9994
2 67411  42.9997  75.6745 0001116 265.3707  56.1964 15.50599998  4391
STARLINK-36446          
1 67412U 26005J   26034.25002315  .00037338  00000+0  64035-3 0  9990
2 67412  42.9997  75.6699 0001320 264.3750  59.1305 15.50529939  4653
